NORAD_CAT_ID,OBJECT_NAME,OBJECT_TYPE,EPOCH,MEAN_MOTION,ECCENTRICITY,INCLINATION,RA_OF_ASC_NODE,ARG_OF_PERICENTER,MEAN_ANOMALY,BSTAR,MEAN_MOTION_DOT,MEAN_MOTION_DDOT,TLE_LINE0,TLE_LINE1,TLE_LINE2,SEMIMAJOR_AXIS,PERIOD,APOGEE,PERIGEE,DECAYED
55315.0,STARLINK-4623,PAYLOAD,2024-01-22 20:03:06,14.98329293,0.00025,70.0011,183.192,267.1412,92.9461,6.9347e-06,-1e-07,0.0,0 STARLINK-4623,1 55315U 23010AY  24022.83548767 -.00000010  00000-0  69347-5 0  9999,2 55315  70.0011 183.1920 0002500 267.1412  92.9461 14.98329293 56602,6950.195,96.107,573.798,570.323,0.0
55315.0,STARLINK-4623,PAYLOAD,2024-01-23 20:05:06,14.98332115,0.0002488,70.0013,180.6677,264.801,95.2865,3.1512e-05,2.83e-06,0.0,0 STARLINK-4623,1 55315U 23010AY  24023.83688425  .00000283  00000-0  31512-4 0  9999,2 55315  70.0013 180.6677 0002488 264.8010  95.2865 14.98332115 57048,6950.186,96.107,573.781,570.322,0.0
55315.0,STARLINK-4623,PAYLOAD,2024-01-24 13:42:35,14.98328377,0.0002458,70.0015,178.8173,262.172,97.916,-7.5924e-06,-1.83e-06,0.0,0 STARLINK-4623,1 55315U 23010AY  24024.57124701 -.00000183  00000-0 -75924-5 0  9990,2 55315  70.0015 178.8173 0002458 262.1720  97.9160 14.98328377 57150,6950.198,96.107,573.771,570.355,0.0
55315.0,STARLINK-4623,PAYLOAD,2024-01-24 20:07:08,14.98327528,0.0002511,70.0015,178.144,265.5485,94.5387,-1.9896e-05,-3.3e-06,0.0,0 STARLINK-4623,1 55315U 23010AY  24024.83828828 -.00000330  00000-0 -19896-4 0  9999,2 55315  70.0015 178.1440 0002511 265.5485  94.5387 14.98327528 56908,6950.201,96.107,573.811,570.32,0.0
55315.0,STARLINK-4623,PAYLOAD,2024-01-25 13:44:36,14.98328815,0.0002537,70.0015,176.2927,262.2631,97.824,-4.6854e-05,-6.52e-06,0.0,0 STARLINK-4623,1 55315U 23010AY  24025.57264866 -.00000652  00000-0 -46854-4 0  9998,2 55315  70.0015 176.2927 0002537 262.2631  97.8240 14.98328815 57301,6950.197,96.107,573.825,570.298,0.0
55315.0,STARLINK-4623,PAYLOAD,2024-01-25 20:09:09,14.98327318,0.0002579,70.0015,175.6193,265.0453,95.0411,-6.0646e-05,-8.16e-06,0.0,0 STARLINK-4623,1 55315U 23010AY  24025.83969046 -.00000816  00000-0 -60646-4 0  9996,2 55315  70.0015 175.6193 0002579 265.0453  95.0411 14.98327318 57057,6950.201,96.107,573.859,570.274,0.0
55315.0,STARLINK-4623,PAYLOAD,2024-01-26 12:10:27,14.98349866,0.0004221,69.9969,173.9264,288.9525,71.1176,0.00022204,2.559e-05,0.0,0 STARLINK-4623,1 55315U 23010AY  24026.50726080  .00002559  00000-0  22204-3 0  9991,2 55315  69.9969 173.9264 0004221 288.9525  71.1176 14.98349866 57158,6950.131,96.106,574.93,569.063,0.0
55315.0,STARLINK-4623,PAYLOAD,2024-01-26 13:46:35,14.98349837,0.0003299,70.0012,173.7672,272.4714,87.6068,0.00023973,2.77e-05,0.0,0 STARLINK-4623,1 55315U 23010AY  24026.57401945  .00002770  00000-0  23973-3 0  9997,2 55315  70.0012 173.7672 0003299 272.4714  87.6068 14.98349837 57456,6950.132,96.106,574.289,569.704,0.0
55315.0,STARLINK-4623,PAYLOAD,2024-01-26 18:35:02,14.98312568,0.0002779,70.0013,173.2627,261.4826,98.6018,-0.00019158,-2.377e-05,0.0,0 STARLINK-4623,1 55315U 23010AY  24026.77433557 -.00002377  00000-0 -19158-3 0  9998,2 55315  70.0013 173.2627 0002779 261.4826  98.6018 14.98312568 57195,6950.247,96.108,574.043,570.18,0.0
55315.0,STARLINK-4623,PAYLOAD,2024-01-27 12:12:31,14.98315628,0.000316,70.0002,171.4086,268.3546,91.7251,-0.00014805,-1.858e-05,0.0,0 STARLINK-4623,1 55315U 23010AY  24027.50869787 -.00001858  00000-0 -14805-3 0  9995,2 55315  70.0002 171.4086 0003160 268.3546  91.7251 14.98315628 57308,6950.237,96.108,574.299,569.906,0.0
55315.0,STARLINK-4623,PAYLOAD,2024-01-27 13:48:39,14.98315835,0.0003091,70.0004,171.2401,269.6765,90.404,-0.0001352,-1.705e-05,0.0,0 STARLINK-4623,1 55315U 23010AY  24027.57545804 -.00001705  00000-0 -13520-3 0  9997,2 55315  70.0004 171.2401 0003091 269.6765  90.4040 14.98315835 57604,6950.237,96.108,574.25,569.953,0.0
55315.0,STARLINK-4623,PAYLOAD,2024-01-27 18:37:03,14.98319619,0.0003035,70.0006,170.7363,264.4952,95.5861,-9.1395e-05,-1.183e-05,0.0,0 STARLINK-4623,1 55315U 23010AY  24027.77573550 -.00001183  00000-0 -91395-4 0  9995,2 55315  70.0006 170.7363 0003035 264.4952  95.5861 14.98319619 57630,6950.225,96.108,574.199,569.981,0.0
55315.0,STARLINK-4623,PAYLOAD,2024-01-28 12:14:31,14.98340191,0.0003306,70.0005,168.8844,259.5282,100.5505,-0.00016621,-2.076e-05,0.0,0 STARLINK-4623,1 55315U 23010AY  24028.51008238 -.00002076  00000-0 -16621-3 0  9994,2 55315  70.0005 168.8844 0003306 259.5282 100.5505 14.98340191 57454,6950.161,96.106,574.324,569.729,0.0
55315.0,STARLINK-4623,PAYLOAD,2024-01-28 13:50:38,14.98364414,0.000313,70.0005,168.7162,260.4748,99.6057,-0.00055964,-6.77e-05,0.0,0 STARLINK-4623,1 55315U 23010AY  24028.57683911 -.00006770  00000-0 -55964-3 0  9995,2 55315  70.0005 168.7162 0003130 260.4748  99.6057 14.98364414 57756,6950.086,96.105,574.127,569.776,0.0
55315.0,STARLINK-4623,PAYLOAD,2024-01-28 18:39:03,14.98340314,0.0003119,70.0007,168.2111,258.432,101.6489,-6.2999e-05,-8.45e-06,0.0,0 STARLINK-4623,1 55315U 23010AY  24028.77711844 -.00000845  00000-0 -62999-4 0  9998,2 55315  70.0007 168.2111 0003119 258.4320 101.6489 14.98340314 57786,6950.161,96.106,574.194,569.858,0.0
55315.0,STARLINK-4623,PAYLOAD,2024-01-29 12:16:32,14.98328633,0.0003174,70.0009,166.361,257.3151,102.7654,0.00013917,1.568e-05,0.0,0 STARLINK-4623,1 55315U 23010AY  24029.51148331  .00001568  00000-0  13917-3 0  9992,2 55315  70.0009 166.3610 0003174 257.3151 102.7654 14.98328633 57609,6950.197,96.107,574.268,569.856,0.0
55315.0,STARLINK-4623,PAYLOAD,2024-01-30 12:18:33,14.98329711,0.0003143,70.0007,163.8364,257.9756,102.105,-6.7694e-05,-9.01e-06,0.0,0 STARLINK-4623,1 55315U 23010AY  24030.51288799 -.00000901  00000-0 -67694-4 0  9991,2 55315  70.0007 163.8364 0003143 257.9756 102.1050 14.98329711 57756,6950.194,96.107,574.243,569.874,0.0
55315.0,STARLINK-4623,PAYLOAD,2024-01-30 13:54:41,14.98329589,0.0003162,70.0008,163.6685,258.8661,101.2143,-6.6681e-05,-8.89e-06,0.0,0 STARLINK-4623,1 55315U 23010AY  24030.57964811 -.00000889  00000-0 -66681-4 0  9993,2 55315  70.0008 163.6685 0003162 258.8661 101.2143 14.98329589 58057,6950.194,96.107,574.257,569.862,0.0
55315.0,STARLINK-4623,PAYLOAD,2024-01-30 18:43:05,14.98329203,0.0003109,70.0009,163.1637,258.3995,101.6815,-6.4507e-05,-8.63e-06,0.0,0 STARLINK-4623,1 55315U 23010AY  24030.77992832 -.00000863  00000-0 -64507-4 0  9996,2 55315  70.0009 163.1637 0003109 258.3995 101.6815 14.98329203 58082,6950.195,96.107,574.221,569.9,0.0
55315.0,STARLINK-4623,PAYLOAD,2024-01-31 12:20:34,14.98333123,0.0003108,70.0008,161.312,260.5637,99.5171,-4.4828e-05,-6.28e-06,0.0,0 STARLINK-4623,1 55315U 23010AY  24031.51428415 -.00000628  00000-0 -44828-4 0  9993,2 55315  70.0008 161.3120 0003108 260.5637  99.5171 14.98333123 57901,6950.183,96.107,574.208,569.888,0.0
55315.0,STARLINK-4623,PAYLOAD,2024-01-31 18:45:06,14.98335032,0.0002947,70.0008,160.6388,254.4613,105.622,-1.5414e-05,-2.77e-06,0.0,0 STARLINK-4623,1 55315U 23010AY  24031.78132151 -.00000277  00000-0 -15414-4 0  9990,2 55315  70.0008 160.6388 0002947 254.4613 105.6220 14.98335032 58237,6950.177,96.107,574.091,569.994,0.0
55315.0,STARLINK-4623,PAYLOAD,2024-02-01 12:22:35,14.98324853,0.0002861,70.0013,158.7869,260.6478,99.4358,3.7578e-05,3.55e-06,0.0,0 STARLINK-4623,1 55315U 23010AY  24032.51568703  .00000355  00000-0  37578-4 0  9998,2 55315  70.0013 158.7869 0002861 260.6478  99.4358 14.98324853 58341,6950.209,96.107,574.062,570.085,0.0
55315.0,STARLINK-4623,PAYLOAD,2024-02-01 18:47:07,14.98325927,0.000284,70.0013,158.1135,260.8927,99.191,4.6423e-05,4.61e-06,0.0,0 STARLINK-4623,1 55315U 23010AY  24032.78272676  .00000461  00000-0  46423-4 0  9995,2 55315  70.0013 158.1135 0002840 260.8927  99.1910 14.98325927 58095,6950.205,96.107,574.044,570.097,0.0
55315.0,STARLINK-4623,PAYLOAD,2024-02-02 14:00:44,14.98328749,0.0002772,70.0012,156.093,263.1385,96.9459,-1.2502e-05,-2.42e-06,0.0,0 STARLINK-4623,1 55315U 23010AY  24033.58384744 -.00000242  00000-0 -12502-4 0  9994,2 55315  70.0012 156.0930 0002772 263.1385  96.9459 14.98328749 58506,6950.197,96.107,573.988,570.135,0.0
55315.0,STARLINK-4623,PAYLOAD,2024-02-02 17:13:00,14.98327991,0.0002778,70.0014,155.7568,264.1061,95.9781,-2.2192e-05,-3.58e-06,0.0,0 STARLINK-4623,1 55315U 23010AY  24033.71736843 -.00000358  00000-0 -22192-4 0  9994,2 55315  70.0014 155.7568 0002778 264.1061  95.9781 14.98327991 58526,6950.199,96.107,573.995,570.133,0.0
55315.0,STARLINK-4623,PAYLOAD,2024-02-03 12:26:36,14.98332485,0.0002976,70.001,153.7368,266.6781,93.4038,3.209e-05,2.9e-06,0.0,0 STARLINK-4623,1 55315U 23010AY  24034.51848330  .00000290  00000-0  32090-4 0  9999,2 55315  70.0010 153.7368 0002976 266.6781  93.4038 14.98332485 58357,6950.185,96.107,574.119,569.982,0.0
55315.0,STARLINK-4623,PAYLOAD,2024-02-03 17:15:00,14.98334325,0.0002936,70.0012,153.2322,266.0004,94.082,5.1686e-05,5.24e-06,0.0,0 STARLINK-4623,1 55315U 23010AY  24034.71876113  .00000524  00000-0  51686-4 0  9993,2 55315  70.0012 153.2322 0002936 266.0004  94.0820 14.98334325 58678,6950.18,96.107,574.085,570.004,0.0
55315.0,STARLINK-4623,PAYLOAD,2024-02-04 12:28:37,14.98329924,0.0002884,70.0014,151.2128,262.7076,97.3755,2.1568e-05,1.64e-06,0.0,0 STARLINK-4623,1 55315U 23010AY  24035.51988349  .00000164  00000-0  21568-4 0  9993,2 55315  70.0014 151.2128 0002884 262.7076  97.3755 14.98329924 58500,6950.193,96.107,574.063,570.054,0.0
55315.0,STARLINK-4623,PAYLOAD,2024-02-04 14:04:46,14.98329747,0.0002885,70.0014,151.0446,262.6422,97.4409,1.9027e-05,1.34e-06,0.0,0 STARLINK-4623,1 55315U 23010AY  24035.58664364  .00000134  00000-0  19027-4 0  9992,2 55315  70.0014 151.0446 0002885 262.6422  97.4409 14.98329747 58809,6950.194,96.107,574.064,570.054,0.0
55315.0,STARLINK-4623,PAYLOAD,2024-02-04 17:17:01,14.98332054,0.0002848,70.0016,150.7083,262.0227,98.0609,4.5335e-05,4.48e-06,0.0,0 STARLINK-4623,1 55315U 23010AY  24035.72016122  .00000448  00000-0  45335-4 0  9990,2 55315  70.0016 150.7083 0002848 262.0227  98.0609 14.98332054 58826,6950.187,96.107,574.031,570.072,0.0
